1 25118U 97084G   16224.57011955 +.00000163 +00000-0 +99253-4 0  9995,2 25118 045.0161 256.8488 0004788 226.4853 270.3289 14.38366858975738
1 25118U 97084G   16225.54788800 +.00000202 +00000-0 +11205-3 0  9997,2 25118 045.0159 252.2112 0004840 230.8951 293.8336 14.38367595975873
1 25118U 97084G   16226.51924803 +.00000221 +00000-0 +11827-3 0  9991,2 25118 045.0158 247.6041 0004882 235.2503 284.1797 14.38368296976019
1 25118U 97084G   16227.49104086 +.00000218 +00000-0 +11710-3 0  9999,2 25118 045.0158 242.9950 0004916 239.5709 276.8065 14.38368967976155
1 25118U 97084G   16228.52969800  .00000205  00000-0  11290-3 0  9996,2 25118  45.0158 238.0687 0004950 244.1229 255.7724 14.38369655976305
1 25118U 97084G   16230.17969576  .00000199  00000-0  11115-3 0  9998,2 25118  45.0159 230.2428 0005000 251.1535 160.9366 14.38370786976540
1 25118U 97084G   16231.45146008  .00000207  00000-0  11361-3 0  9990,2 25118  45.0158 224.2110 0005007 256.7380 267.1084 14.38371699976727
1 25118U 97084G   16232.49139509  .00000192  00000-0  10880-3 0  9991,2 25118  45.0157 219.2787 0005009 261.2355 252.7625 14.38372375976874
1 25118U 97084G   16232.95302999 +.00000181 +00000-0 +10511-3 0  9996,2 25118 045.0157 217.0892 0005014 263.1910 123.5364 14.38372655976945
1 25118U 97084G   16234.13964119  .00000173  00000-0  10255-3 0  9992,2 25118  45.0157 211.4611 0004995 268.3015 148.8283 14.38373460977106
1 25118U 97084G   16235.18450465  .00000159  00000-0  98162-4 0  9990,2 25118  45.0158 206.5054 0004977 272.7669 160.0649 14.38374008977265
1 25118U 97084G   16236.37325803  .00000165  00000-0  99907-4 0  9994,2 25118  45.0159 200.8672 0004938 277.9840 196.3576 14.38374673977432
1 25118U 97084G   16237.88493770  .00000165  00000-0  10010-3 0  9997,2 25118  45.0161 193.6973 0004893 284.4186 105.2203 14.38375600977655
1 25118U 97084G   16237.95769275 +.00000162 +00000-0 +99067-4 0  9998,2 25118 045.0161 193.3522 0004888 284.6879 122.0533 14.38375636977660
1 25118U 97084G   16239.22476144  .00000143  00000-0  93010-4 0  9991,2 25118  45.0163 187.3427 0004821 290.1860 203.9953 14.38376363977841
1 25118U 97084G   16239.90159156 +.00000128 +00000-0 +87964-4 0  9991,2 25118 045.0163 184.1326 0004789 293.1018 109.2108 14.38376724977947
1 25118U 97084G   16240.27048084  .00000133  00000-0  89465-4 0  9994,2 25118  45.0164 182.3830 0004767 294.6605 219.6711 14.38376968977993
1 25118U 97084G   16241.44119309  .00000137  00000-0  90928-4 0  9993,2 25118  45.0165 176.8306 0004698 299.8677 162.4764 14.38377659978160
1 25118U 97084G   16241.92771231 +.00000143 +00000-0 +92813-4 0  9996,2 25118 045.0165 174.5231 0004672 301.8945 162.1675 14.38377968978235
1 25118U 97084G   16242.88946338  .00000196  00000-0  11005-3 0  9995,2 25118  45.0165 169.9617 0004609 306.1002 102.8946 14.38378808978374
1 25118U 97084G   16244.23001904  .00000188  00000-0  10756-3 0  9990,2 25118  45.0165 163.6037 0004531 311.9001 205.4441 14.38379542978565
1 25118U 97084G   16244.83316192 +.00000180 +00000-0 +10493-3 0  9994,2 25118 045.0165 160.7430 0004492 314.5272 089.0200 14.38379856978652
1 25118U 97084G   16245.26869814  .00000195  00000-0  10961-3 0  9992,2 25118  45.0165 158.6773 0004457 316.5497 184.4644 14.38380201978715
1 25118U 97084G   16245.80619149 +.00000210 +00000-0 +11476-3 0  9996,2 25118 045.0165 156.1280 0004418 318.9528 087.9923 14.38380631978791
1 25118U 97084G   16246.24021022 +.00000272 +00000-0 +13463-3 0  9998,2 25118 045.0165 154.0696 0004385 321.0779 175.4702 14.38381270978850
1 25118U 97084G   16247.21240866  .00000285  00000-0  13889-3 0  9991,2 25118  45.0166 149.4585 0004308 325.4905 170.1515 14.38381984978991
1 25118U 97084G   16247.88938532 +.00000293 +00000-0 +14153-3 0  9992,2 25118 045.0167 146.2476 0004239 328.5264 076.0197 14.38382529979099
1 25118U 97084G   16248.25717538  .00000344  00000-0  15812-3 0  9995,2 25118  45.0166 144.5032 0004208 330.3324 180.5438 14.38383144979140
1 25118U 97084G   16248.86190303 +.00000315 +00000-0 +14862-3 0  9999,2 25118 045.0167 141.6350 0004150 333.0545 072.2470 14.38383500979232
1 25118U 97084G   16249.83375459  .00000308  00000-0  14661-3 0  9993,2 25118  45.0167 137.0256 0004057 337.6174  64.9901 14.38384416979368
1 25118U 97084G   16249.90664071 +.00000308 +00000-0 +14662-3 0  9993,2 25118 045.0167 136.6800 0004051 337.9593 082.4321 14.38384493979388
1 25118U 97084G   16251.03222932  .00000274  00000-0  13534-3 0  9995,2 25118  45.0166 131.3415 0003944 343.5070 151.0453 14.38385439979542
1 25118U 97084G   16252.47747852  .00000257  00000-0  12984-3 0  9996,2 25118  45.0166 124.4869 0003821 350.6053  74.9805 14.38386690979759
1 25118U 97084G   16252.76332206 +.00000256 +00000-0 +12943-3 0  9995,2 25118 045.0166 123.1310 0003777 352.0580 115.1163 14.38386915979796
1 25118U 97084G   16253.65193339  .00000263  00000-0  13174-3 0  9991,2 25118  45.0165 118.9164 0003689 356.5727  36.4661 14.38387647979924
1 25118U 97084G   16254.83865248  .00000241  00000-0  12479-3 0  9990,2 25118  45.0164 113.2877 0003544   2.8512  61.2128 14.38388454980096
1 25118U 97084G   16254.91167304 +.00000241 +00000-0 +12465-3 0  9992,2 25118 045.0164 112.9414 0003539 003.2247 079.3210 14.38388502980101
1 25118U 97084G   16256.03754551  .00000250  00000-0  12757-3 0  9997,2 25118  45.0163 107.6012 0003437   9.2619 148.9318 14.38389459980262
1 25118U 97084G   16256.93584300 +.00000247 +00000-0 +12657-3 0  9994,2 25118 045.0164 103.3405 0003346 014.2388 120.0335 14.38390158980392
1 25118U 97084G   16257.53881800  .00000231  00000-0  12136-3 0  9991,2 25118  45.0164 100.4805 0003285  17.6172   2.0117 14.38390523980476
1 25118U 97084G   16257.90787828 +.00000223 +00000-0 +11888-3 0  9991,2 25118 045.0164 098.7300 0003253 019.7934 112.7585 14.38390714980536
1 25118U 97084G   16258.80813756  .00000210  00000-0  11452-3 0  9994,2 25118  45.0165  94.4600 0003168  24.9360  93.8661 14.38391236980667
1 25118U 97084G   16258.95213171 +.00000218 +00000-0 +11709-3 0  9998,2 25118 045.0165 093.7770 0003160 025.7861 119.3708 14.38391367980687
1 25118U 97084G   16259.85229013  .00000219  00000-0  11742-3 0  9998,2 25118  45.0166  89.5075 0003064  31.2310  99.6561 14.38391992980819
1 25118U 97084G   16259.92740426 +.00000216 +00000-0 +11670-3 0  9999,2 25118 045.0166 089.1512 0003067 031.5958 128.6251 14.38392018980825
1 25118U 97084G   16260.89852856  .00000193  00000-0  10922-3 0  9991,2 25118  45.0166  84.5451 0002979  37.6548 116.1309 14.38392562980964
1 25118U 97084G   16260.96901984 +.00000192 +00000-0 +10879-3 0  9996,2 25118 045.0166 084.2107 0002976 038.0728 121.0858 14.38392608980977
1 25118U 97084G   16262.00753226  .00000158  00000-0  97807-4 0  9996,2 25118  45.0167  79.2850 0002895  44.8313  97.1825 14.38393136981124
1 25118U 97084G   16263.51167289  .00000136  00000-0  90646-4 0  9991,2 25118  45.0168  72.1506 0002791  54.7378 323.5962 14.38393929981332
1 25118U 97084G   16264.56463207  .00000185  00000-0  10646-3 0  9991,2 25118  45.0169  67.1563 0002717  61.9383  14.1381 14.38394828981498
1 25118U 97084G   16264.92937978 +.00000167 +00000-0 +10050-3 0  9991,2 25118 045.0169 065.4263 0002703 064.4402 102.2122 14.38394933981546
1 25118U 97084G   16265.90115661  .00000169  00000-0  10141-3 0  9990,2 25118  45.0170  60.8170 0002655  71.1386  92.4706 14.38395480981687
1 25118U 97084G   16266.87247719 +.00000171 +00000-0 +10194-3 0  9998,2 25118 045.0172 056.2098 0002616 078.0360 080.1677 14.38396080981826
1 25118U 97084G   16267.84418110  .00000147  00000-0  94084-4 0  9995,2 25118  45.0174  51.6009 0002593  84.8520  69.9345 14.38396536981964
1 25118U 97084G   16269.41907605  .00000179  00000-0  10464-3 0  9996,2 25118  45.0177  44.1311 0002565  95.9344 301.9289 14.38397686982184
1 25118U 97084G   16269.85442852 +.00000157 +00000-0 +97275-4 0  9994,2 25118 045.0178 042.0663 0002555 099.1275 035.2778 14.38397816982253
1 25118U 97084G   16270.45938571  .00000182  00000-0  10537-3 0  9993,2 25118  45.0178  39.1970 0002545 103.6115 286.4415 14.38398331982334
1 25118U 97084G   16271.80421748  .00000245  00000-0  12589-3 0  9995,2 25118  45.0179  32.8187 0002553 112.9462  47.7170 14.38399565982530
1 25118U 97084G   16273.17521824  .00000261  00000-0  13105-3 0  9996,2 25118  45.0181  26.3161 0002571 122.5309 304.3895 14.38400757982723
1 25118U 97084G   16274.49272407  .00000258  00000-0  13031-3 0  9996,2 25118  45.0182  20.0673 0002627 131.4661 284.4376 14.38401806982914
1 25118U 97084G   16274.78610057 +.00000262 +00000-0 +13150-3 0  9992,2 25118 045.0182 018.6759 0002636 133.1795 003.3734 14.38402060982963
1 25118U 97084G   16275.75828456  .00000245  00000-0  12593-3 0  9995,2 25118  45.0182  14.0649 0002674 139.6384 356.0061 14.38402687983101
1 25118U 97084G   16277.48098683  .00000236  00000-0  12308-3 0  9992,2 25118  45.0183   5.8942 0002767 150.9611 273.9211 14.38403963983357
1 25118U 97084G   16277.63442495 +.00000223 +00000-0 +11885-3 0  9998,2 25118 045.0183 005.1665 0002773 151.8439 348.3502 14.38403994983373
1 25118U 97084G   16278.67938286  .00000224  00000-0  11926-3 0  9998,2 25118  45.0183   0.2103 0002832 158.2147 358.2878 14.38404890983528
1 25118U 97084G   16279.71809821  .00000263  00000-0  13170-3 0  9992,2 25118  45.0184 355.2838 0002912 164.1851 336.2741 14.38406102983673
